ONEWEB-0189             
1 48217U 21031H   23059.06663119  .00000247  00000+0  63211-3 0  9998
2 48217  87.9127 169.4400 0001903 126.9804 233.1501 13.14504490 89907
ONEWEB-0189             
1 48217U 21031H   23059.37110289  .00000200  00000+0  50567-3 0  9996
2 48217  87.9127 169.3798 0001928 126.7100 233.4207 13.14503802 89946
ONEWEB-0189             
1 48217U 21031H   23059.82780963  .00000138  00000+0  33749-3 0  9991
2 48217  87.9125 169.2896 0001955 126.2187 233.9124 13.14503944 90001
ONEWEB-0189             
1 48217U 21031H   23060.36063269  .00000309  00000+0  80022-3 0  9991
2 48217  87.9126 169.1842 0002017 125.7647 234.3670 13.14504404 90077
ONEWEB-0189             
1 48217U 21031H   23061.80686940  .00000048  00000+0  95180-4 0  9990
2 48217  87.9127 168.8983 0002097 125.3682 234.7644 13.14503596 90260
ONEWEB-0189             
1 48217U 21031H   23062.33969194 -.00000047  00000+0 -16054-3 0  9997
2 48217  87.9125 168.7930 0002098 125.2263 234.9064 13.14504638 90338
